     3.00           N                   E                   RINEX VERSION / TYPE
BRD_USR             ESA                 20190115 131719  UTCPGM / RUN BY / DATE
 GAL   3.5750E+01  1.3672E-01 -6.1035E-05  0.0000E+00       IONOSPHERIC CORR
GAUT  2.7939677238E-09-1.776356839E-15 172800 2036 GSTB   0 TIME SYSTEM CORR
GPGA -1.4551915228E-09-1.110223025E-14 172800 2036 GSTB   0 TIME SYSTEM CORR
                                                            END OF HEADER
E03 2019 01 15 10 50 00-1.224161824211E-04-4.277467269276E-12 0.000000000000E+00
     9.700000000000E+01-5.115625000000E+01 3.525861151984E-09 2.413852309289E+00
    -2.497807145119E-06 2.570907818154E-04 8.799135684967E-06 5.440611307144E+03
     2.118000000000E+05 9.313225746155E-09 1.119613661409E+00-3.352761268616E-08
     9.524204714041E-01 1.442812500000E+02 6.146819243351E-01-5.718452482213E-09
    -3.932306653499E-10 2.580000000000E+02 2.036000000000E+03 0.000000000000E+00
     3.120000000000E+00 0.000000000000E+00-1.862645149231E-09 0.000000000000E+00
     2.125000000000E+05 0.000000000000E+00 0.000000000000E+00 0.000000000000E+00
E04 2019 01 15 10 50 00-2.004855195992E-04-7.858602657507E-12 0.000000000000E+00
     9.700000000000E+01-3.243750000000E+01 3.473001807323E-09-3.051215872897E+00
    -1.544132828712E-06 7.235410157591E-05 8.670613169670E-06 5.440613945007E+03
     2.118000000000E+05-2.793967723846E-08 1.119662818382E+00 4.097819328308E-08
     9.524632939421E-01 1.515000000000E+02 2.157308375204E+00-5.670950503565E-09
    -2.678683006471E-10 2.580000000000E+02 2.036000000000E+03 0.000000000000E+00
     3.120000000000E+00 0.000000000000E+00-7.916241884232E-09 0.000000000000E+00
     2.125000000000E+05 0.000000000000E+00 0.000000000000E+00 0.000000000000E+00
E05 2019 01 15 10 50 00 1.246969914064E-04-6.579625733139E-12 0.000000000000E+00
     9.700000000000E+01-3.743750000000E+01 3.511217684882E-09 2.169542896616E+00
    -1.724809408188E-06 1.294602407143E-04 8.663162589073E-06 5.440616235733E+03
     2.118000000000E+05 5.587935447693E-08 1.119597532737E+00-7.078051567078E-08
     9.524330334817E-01 1.460937500000E+02 1.646505070128E+00-5.761311410317E-09
    -4.021596087048E-10 2.580000000000E+02 2.036000000000E+03 0.000000000000E+00
     3.120000000000E+00 0.000000000000E+00-1.396983861923E-09 0.000000000000E+00
     2.125000000000E+05 0.000000000000E+00 0.000000000000E+00 0.000000000000E+00
E07 2019 01 15 10 50 00-1.129753654823E-04-7.105427357601E-12 0.000000000000E+00
     9.700000000000E+01-5.534375000000E+01 3.553719455251E-09 1.498469937836E+00
    -2.456828951836E-06 1.327792415395E-04 7.979571819305E-06 5.440614089966E+03
     2.118000000000E+05-7.450580596924E-09 1.119614354832E+00-2.793967723846E-08
     9.524642302097E-01 1.647500000000E+02-4.034169959372E-02-5.736310368923E-09
    -2.989410235221E-10 2.580000000000E+02 2.036000000000E+03 0.000000000000E+00
     3.120000000000E+00 0.000000000000E+00 2.328306436539E-10 0.000000000000E+00
     2.125000000000E+05 0.000000000000E+00 0.000000000000E+00 0.000000000000E+00
E09 2019 01 15 10 50 00 6.557624030393E-03-1.131184035330E-11 0.000000000000E+00
     9.700000000000E+01-3.468750000000E+01 3.456572551550E-09-1.757029550670E+00
    -1.560896635056E-06 2.367902779952E-04 8.713454008102E-06 5.440616123199E+03
     2.118000000000E+05 9.126961231232E-08 1.111011432463E+00 7.264316082001E-08
     9.584355853178E-01 1.525937500000E+02 7.348589782832E-02-5.714523747137E-09
    -3.071556514086E-10 2.580000000000E+02 2.036000000000E+03 0.000000000000E+00
     3.120000000000E+00 0.000000000000E+00-3.259629011154E-09 0.000000000000E+00
     2.125000000000E+05 0.000000000000E+00 0.000000000000E+00 0.000000000000E+00
E12 2019 01 15 10 50 00 5.947297904640E-03 8.439826615358E-11 0.000000000000E+00
     9.700000000000E+01-3.581250000000E+01 2.735828243942E-09 2.058654411334E+00
    -1.879408955574E-06 4.083823878318E-04 9.329989552498E-06 5.440607109070E+03
     2.118000000000E+05-3.539025783539E-08-9.857188173168E-01 2.421438694000E-08
     9.820086566480E-01 1.501562500000E+02-8.426165584761E-01-5.434154925793E-09
     2.692969315838E-10 2.580000000000E+02 2.036000000000E+03 0.000000000000E+00
     3.120000000000E+00 0.000000000000E+00-1.559965312481E-08 0.000000000000E+00
     2.125000000000E+05 0.000000000000E+00 0.000000000000E+00 0.000000000000E+00
E14 2019 01 15 10 50 00 6.459604890551E-03-5.584865903074E-12 0.000000000000E+00
     9.700000000000E+01-1.704687500000E+02 4.055883229531E-09-2.909266131640E+00
    -7.441267371178E-06 1.662617215188E-01 5.736947059631E-06 5.289394651413E+03
     2.118000000000E+05 2.991408109665E-06-1.588147238879E+00-2.700835466385E-07
     8.826471085606E-01 1.385625000000E+02 1.458360066871E+00-5.837386007701E-09
     1.678641350722E-11 2.580000000000E+02 2.036000000000E+03 0.000000000000E+00
     3.120000000000E+00 5.600000000000E+01 3.306195139885E-08 0.000000000000E+00
     2.125000000000E+05 0.000000000000E+00 0.000000000000E+00 0.000000000000E+00
E15 2019 01 15 10 50 00 9.229054558091E-04-1.080024958355E-12 0.000000000000E+00
     9.700000000000E+01-5.921875000000E+01 2.707612782941E-09-3.712730064967E-01
    -2.879649400711E-06 3.915247507393E-04 9.624287486076E-06 5.440598867416E+03
     2.118000000000E+05 4.284083843231E-08-9.909957998214E-01 5.587935447693E-09
     9.851934088257E-01 1.452187500000E+02-1.569017732938E+00-5.402725045184E-09
     2.664396697103E-10 2.580000000000E+02 2.036000000000E+03 0.000000000000E+00
     3.120000000000E+00 5.600000000000E+01 1.396983861923E-09 0.000000000000E+00
     2.125000000000E+05 0.000000000000E+00 0.000000000000E+00 0.000000000000E+00
E19 2019 01 15 10 50 00-9.105133358389E-06 3.126388037344E-13 0.000000000000E+00
     9.700000000000E+01-3.859375000000E+01 3.332281660049E-09-2.418316983124E+00
    -1.875683665276E-06 1.320054288954E-04 8.171424269676E-06 5.440617746353E+03
     2.118000000000E+05-5.215406417847E-08 1.116366218803E+00 1.676380634308E-08
     9.581926063281E-01 1.622500000000E+02 2.384974297627E+00-5.639163465222E-09
    -3.032269163325E-10 2.580000000000E+02 2.036000000000E+03 0.000000000000E+00
     3.120000000000E+00 0.000000000000E+00-8.614733815193E-09 0.000000000000E+00
     2.125000000000E+05 0.000000000000E+00 0.000000000000E+00 0.000000000000E+00
E27 2019 01 15 10 50 00 5.492925411090E-04-7.688072400924E-12 0.000000000000E+00
     9.700000000000E+01 9.734375000000E+01 2.859761977708E-09 2.090638306334E-01
     4.477798938751E-06 1.690022181720E-04 4.583969712257E-06 5.440622953415E+03
     2.118000000000E+05 4.656612873077E-08-3.073601616507E+00 2.421438694000E-08
     9.896363963625E-01 2.541562500000E+02-8.231829352734E-01-5.620591263044E-09
     6.428839215530E-11 2.580000000000E+02 2.036000000000E+03 0.000000000000E+00
     3.120000000000E+00 0.000000000000E+00-2.561137080193E-09 0.000000000000E+00
     2.125000000000E+05 0.000000000000E+00 0.000000000000E+00 0.000000000000E+00
E31 2019 01 15 10 50 00 9.320965618826E-04-9.663381206337E-12 0.000000000000E+00
     9.700000000000E+01 8.118750000000E+01 2.822974731086E-09-1.411198057401E+00
     3.837049007416E-06 2.134774113074E-04 4.338100552559E-06 5.440624303818E+03
     2.118000000000E+05 7.636845111847E-08-3.073650845164E+00 9.313225746155E-09
     9.896395196926E-01 2.623125000000E+02-1.559072409144E+00-5.667378926223E-09
     6.821712723145E-11 2.580000000000E+02 2.036000000000E+03 0.000000000000E+00
     3.120000000000E+00 0.000000000000E+00-2.328306436539E-10 0.000000000000E+00
     2.125000000000E+05 0.000000000000E+00 0.000000000000E+00 0.000000000000E+00
E33 2019 01 15 10 50 00 8.479231619276E-04 5.684341886081E-14 0.000000000000E+00
     9.700000000000E+01-3.709375000000E+01 2.682968899281E-09-2.891483072093E+00
    -1.750886440277E-06 3.748174058273E-04 9.024515748024E-06 5.440599538803E+03
     2.118000000000E+05-1.862645149231E-08-9.910199745427E-01 7.450580596924E-09
     9.852320956943E-01 1.563437500000E+02-1.404612765314E+00-5.416654196818E-09
     2.439387324559E-10 2.580000000000E+02 2.036000000000E+03 0.000000000000E+00
     3.120000000000E+00 5.600000000000E+01-8.381903171539E-09 0.000000000000E+00
     2.125000000000E+05 0.000000000000E+00 0.000000000000E+00 0.000000000000E+00
E07 2019 01 15 10 50 00-1.129753072746E-04-7.105427357601E-12 0.000000000000E+00
     9.700000000000E+01-5.534375000000E+01 3.553719455251E-09 1.498469937836E+00
    -2.456828951836E-06 1.327792415395E-04 7.979571819305E-06 5.440614089966E+03
     2.118000000000E+05-7.450580596924E-09 1.119614354832E+00-2.793967723846E-08
     9.524642302097E-01 1.647500000000E+02-4.034169959372E-02-5.736310368923E-09
    -2.989410235221E-10 5.210000000000E+02 2.036000000000E+03 0.000000000000E+00
     3.120000000000E+00 0.000000000000E+00 2.328306436539E-10 2.328306436539E-10
     2.125150000000E+05 0.000000000000E+00 0.000000000000E+00 0.000000000000E+00
E26 2019 01 15 10 40 00 5.017355200835E-03-4.335731773608E-11 0.000000000000E+00
     9.600000000000E+01-4.759375000000E+01 2.748328764639E-09-1.605015033970E+00
    -2.119690179825E-06 3.182640066370E-04 8.631497621536E-06 5.440614610672E+03
     2.112000000000E+05-1.490116119385E-08-9.820863858743E-01-2.421438694000E-08
     9.783523401420E-01 1.645312500000E+02-1.974092036583E+00-5.449512708364E-09
     2.500104139373E-10 5.210000000000E+02 2.036000000000E+03 0.000000000000E+00
     3.120000000000E+00 0.000000000000E+00 1.164153218269E-09 1.164153218269E-09
     2.125150000000E+05 0.000000000000E+00 0.000000000000E+00 0.000000000000E+00
